OBJECT_NAME,OBJECT_ID,EPOCH,MEAN_MOTION,ECCENTRICITY,INCLINATION,RA_OF_ASC_NODE,ARG_OF_PERICENTER,MEAN_ANOMALY,EPHEMERIS_TYPE,CLASSIFICATION_TYPE,NORAD_CAT_ID,ELEMENT_SET_NO,REV_AT_EPOCH,BSTAR,MEAN_MOTION_DOT,MEAN_MOTION_DDOT
SES-2,2011-049A,2026-07-18T13:51:38.716416,1.00271814,.0002771,0.1367,90.8758,23.0942,303.3105,0,U,37809,999,5427,0,-.203E-5,0
ARABSAT-5C,2011-049B,2026-07-18T19:58:52.502304,1.00273031,.000356,0.0544,28.9152,105.4884,121.9358,0,U,37810,999,5435,0,.117E-5,0
EUTELSAT 7 WEST A,2011-051A,2026-07-18T18:58:38.631360,1.00271547,.0004775,0.0608,357.0971,131.9500,84.8679,0,U,37816,999,5419,0,-.67E-6,0
QUETZSAT 1,2011-054A,2026-07-18T15:05:38.631840,1.00271964,.0002783,0.0446,269.5616,211.9338,324.3413,0,U,37826,999,5019,0,-.249E-5,0
INTELSAT 18 (IS-18),2011-056A,2026-07-18T17:30:11.271168,1.00273039,.0001882,0.0375,235.7276,252.7167,250.6266,0,U,37834,999,5412,0,.46E-6,0
EUTELSAT 16A,2011-057A,2026-07-18T19:54:05.402016,1.00269786,.0005547,0.0438,30.1675,87.9149,133.0722,0,U,37836,999,765,0,.97E-6,0
VIASAT-1,2011-059A,2026-07-18T14:07:38.839008,1.00265970,.0002147,0.0180,54.0511,51.2592,287.8902,0,U,37843,999,4763,0,0,0
ASIASAT 7,2011-069A,2026-07-18T20:54:12.138912,1.00270619,.0001304,0.0254,76.6701,14.9015,264.1552,0,U,37933,999,4517,0,-.34E-5,0
BEIDOU-2 IGSO-5,2011-073A,2026-07-02T17:30:18.330912,1.00270596,.01145273,47.6496,271.3544,222.0502,141.5350,0,U,37948,999,5329,0,-.128E-5,0
LUCH-5A,2011-074B,2026-07-18T12:54:19.185984,1.00273792,.0002741,8.8316,73.3451,60.5783,163.0027,0,U,37951,999,5336,0,-.6E-6,0
NIGCOMSAT 1R,2011-077A,2026-07-18T20:17:10.076928,1.00272932,.0002418,0.0344,110.0966,240.5117,292.8082,0,U,38014,999,5327,0,.138E-5,0
WGS F4 (USA 233),2012-003A,2026-07-18T17:03:59.865120,1.00271547,.0000499,0.0198,53.2418,110.0502,117.6226,0,U,38070,999,4446,0,-.221E-5,0
SES-4,2012-007A,2026-07-18T18:17:38.632416,1.00272185,.0002505,0.0226,33.6331,87.7248,67.6224,0,U,38087,999,5254,0,-.175E-5,0
BEIDOU-2 G5,2012-008A,2026-07-18T20:36:46.958976,1.00271349,.0007284,3.6511,69.4992,269.1260,325.8751,0,U,38091,999,5268,0,.5E-6,0
MUOS-1,2012-009A,2026-07-18T16:10:22.703232,1.00271563,.0056613,5.5383,47.1083,3.6200,28.3898,0,U,38093,999,5276,0,-.136E-5,0
INTELSAT 22 (IS-22),2012-011A,2026-07-18T19:02:21.679872,1.00272019,.0001842,0.0200,60.6237,68.8371,164.8197,0,U,38098,999,750,0,-.65E-6,0
APSTAR-7,2012-013A,2026-07-18T19:02:38.645376,1.00271070,.0003025,0.0312,95.6030,32.0060,171.1384,0,U,38107,999,5212,0,-.108E-5,0
YAHSAT 1B,2012-016A,2026-07-18T16:52:26.169024,1.00273672,.0002661,0.0884,88.7199,29.5465,118.9453,0,U,38245,999,4592,0,.119E-5,0
AEHF-2 (USA 235),2012-019A,2026-07-18T09:43:32.557152,1.00272004,.00021696,6.7201,57.2491,62.6457,305.7162,0,U,38254,999,730,0,-.145E-5,0
JCSAT-13,2012-023A,2026-07-18T19:21:38.644128,1.00272895,.0002102,0.0185,50.5958,65.5224,234.8986,0,U,38331,999,5185,0,-.363E-5,0
VINASAT-2,2012-023B,2026-07-18T17:16:27.587136,1.00272499,.0002277,0.0195,340.2210,134.1747,213.0777,0,U,38332,999,4697,0,-.335E-5,0
NIMIQ 6,2012-026A,2026-07-18T13:51:38.716416,1.00271427,.0002822,0.0622,264.5021,216.8868,291.7989,0,U,38342,999,5072,0,-.181E-5,0
ZHONGXING-2A,2012-028A,2026-07-18T18:02:38.635584,1.00269140,.000148,1.5345,83.4798,41.0561,180.9061,0,U,38352,999,5161,0,-.299E-5,0
INTELSAT 19 (IS-19),2012-030A,2026-07-18T17:26:11.652864,1.00272000,.0002933,0.0161,52.0829,64.8445,247.1300,0,U,38356,999,5076,0,-.63E-6,0
ECHOSTAR 17,2012-035A,2026-07-18T13:59:38.658048,1.00271899,.0002236,0.0198,52.5938,61.2973,285.2945,0,U,38551,999,5137,0,-.82E-6,0
METEOSAT-10 (MSG-3),2012-035B,2026-07-18T08:05:37.320864,1.00271778,.00013021,4.7438,60.8671,16.8895,339.8317,0,U,38552,999,5116,0,-.17E-6,0
SES-5,2012-036A,2026-07-18T08:06:52.202016,1.00271541,.00019592,0.0443,322.9360,155.1766,304.7160,0,U,38652,999,4476,0,.26E-6,0
INTELSAT 20 (IS-20),2012-043A,2026-07-18T19:02:21.679872,1.00271134,.0001317,0.0146,72.6771,110.0673,107.9381,0,U,38740,999,5106,0,-.31E-6,0
HYLAS 2,2012-043B,2026-07-18T12:52:51.337056,1.00272187,.0002405,2.5065,80.6880,55.5142,280.7724,0,U,38741,999,5108,0,-.266E-5,0
INTELSAT 21 (IS-21),2012-045A,2026-07-18T19:23:38.542272,1.00271992,.00017,0.0462,243.6904,243.9895,41.8395,0,U,38749,999,5084,0,-.291E-5,0
ASTRA 2F,2012-051A,2026-07-18T16:46:49.208160,1.00271378,.0003072,0.0795,254.9099,287.2944,34.1438,0,U,38778,999,4145,0,.143E-5,0
GSAT-10,2012-051B,2026-07-18T20:59:34.684800,1.00272775,.000752,0.0811,264.2462,191.0157,239.3053,0,U,38779,999,5041,0,-.171E-5,0
