SES-2                   
1 37809U 11049A   26199.57753144 -.00000203  00000+0  00000+0 0  9999
2 37809   0.1367  90.8758 0002771  23.0942 303.3105  1.00271814 54277
ARABSAT-5C              
1 37810U 11049B   26199.83255211  .00000117  00000+0  00000+0 0  9995
2 37810   0.0544  28.9152 0003560 105.4884 121.9358  1.00273031 54358
EUTELSAT 7 WEST A       
1 37816U 11051A   26199.79072490 -.00000067  00000+0  00000+0 0  9990
2 37816   0.0608 357.0971 0004775 131.9500  84.8679  1.00271547 54193
QUETZSAT 1              
1 37826U 11054A   26199.62891935 -.00000249  00000+0  00000+0 0  9991
2 37826   0.0446 269.5616 0002783 211.9338 324.3413  1.00271964 50199
INTELSAT 18 (IS-18)     
1 37834U 11056A   26199.72929712  .00000046  00000+0  00000+0 0  9992
2 37834   0.0375 235.7276 0001882 252.7167 250.6266  1.00273039 54127
EUTELSAT 16A            
1 37836U 11057A   26199.82922919  .00000097  00000+0  00000+0 0  9994
2 37836   0.0438  30.1675 0005547  87.9149 133.0722  1.00269786  7650
VIASAT-1                
1 37843U 11059A   26199.58864397  .00000000  00000+0  00000+0 0  9996
2 37843   0.0180  54.0511 0002147  51.2592 287.8902  1.00265970 47636
ASIASAT 7               
1 37933U 11069A   26199.87097383 -.00000340  00000+0  00000+0 0  9990
2 37933   0.0254  76.6701 0001304  14.9015 264.1552  1.00270619 45171
BEIDOU-2 IGSO-5         
1 37948U 11073A   26183.72937883 -.00000128  00000+0  00000+0 0  9990
2 37948  47.6496 271.3544 0114527 222.0502 141.5350  1.00270596 53296
LUCH-5A                 
1 37951U 11074B   26199.53772206 -.00000060  00000+0  00000+0 0  9992
2 37951   8.8316  73.3451 0002741  60.5783 163.0027  1.00273792 53366
NIGCOMSAT 1R            
1 38014U 11077A   26199.84525552  .00000138  00000+0  00000+0 0  9995
2 38014   0.0344 110.0966 0002418 240.5117 292.8082  1.00272932 53271
WGS F4 (USA 233)        
1 38070U 12003A   26199.71110955 -.00000221  00000+0  00000+0 0  9994
2 38070   0.0198  53.2418 0000499 110.0502 117.6226  1.00271547 44462
SES-4                   
1 38087U 12007A   26199.76225269 -.00000175  00000+0  00000+0 0  9994
2 38087   0.0226  33.6331 0002505  87.7248  67.6224  1.00272185 52544
BEIDOU-2 G5             
1 38091U 12008A   26199.85887684  .00000050  00000+0  00000+0 0  9996
2 38091   3.6511  69.4992 0007284 269.1260 325.8751  1.00271349 52684
MUOS-1                  
1 38093U 12009A   26199.67387388 -.00000136  00000+0  00000+0 0  9991
2 38093   5.5383  47.1083 0056613   3.6200  28.3898  1.00271563 52767
INTELSAT 22 (IS-22)     
1 38098U 12011A   26199.79330648 -.00000065  00000+0  00000+0 0  9990
2 38098   0.0200  60.6237 0001842  68.8371 164.8197  1.00272019  7504
APSTAR-7                
1 38107U 12013A   26199.79350284 -.00000108  00000+0  00000+0 0  9999
2 38107   0.0312  95.6030 0003025  32.0060 171.1384  1.00271070 52124
YAHSAT 1B               
1 38245U 12016A   26199.70308066  .00000119  00000+0  00000+0 0  9998
2 38245   0.0884  88.7199 0002661  29.5465 118.9453  1.00273672 45921
AEHF-2 (USA 235)        
1 38254U 12019A   26199.40523793 -.00000145  00000+0  00000+0 0  9994
2 38254   6.7201  57.2491 0002169  62.6457 305.7162  1.00272004  7306
JCSAT-13                
1 38331U 12023A   26199.80669727 -.00000363  00000+0  00000+0 0  9999
2 38331   0.0185  50.5958 0002102  65.5224 234.8986  1.00272895 51858
VINASAT-2               
1 38332U 12023B   26199.71976374 -.00000335  00000+0  00000+0 0  9998
2 38332   0.0195 340.2210 0002277 134.1747 213.0777  1.00272499 46970
NIMIQ 6                 
1 38342U 12026A   26199.57753144 -.00000181  00000+0  00000+0 0  9993
2 38342   0.0622 264.5021 0002822 216.8868 291.7989  1.00271427 50728
ZHONGXING-2A            
1 38352U 12028A   26199.75183606 -.00000299  00000+0  00000+0 0  9996
2 38352   1.5345  83.4798 0001480  41.0561 180.9061  1.00269140 51611
INTELSAT 19 (IS-19)     
1 38356U 12030A   26199.72652376 -.00000063  00000+0  00000+0 0  9994
2 38356   0.0161  52.0829 0002933  64.8445 247.1300  1.00272000 50766
ECHOSTAR 17             
1 38551U 12035A   26199.58308632 -.00000082  00000+0  00000+0 0  9994
2 38551   0.0198  52.5938 0002236  61.2973 285.2945  1.00271899 51373
METEOSAT-10 (MSG-3)     
1 38552U 12035B   26199.33723751 -.00000017  00000+0  00000+0 0  9999
2 38552   4.7438  60.8671 0001302  16.8895 339.8317  1.00271778 51162
SES-5                   
1 38652U 12036A   26199.33810419  .00000026  00000+0  00000+0 0  9998
2 38652   0.0443 322.9360 0001959 155.1766 304.7160  1.00271541 44760
INTELSAT 20 (IS-20)     
1 38740U 12043A   26199.79330648 -.00000031  00000+0  00000+0 0  9992
2 38740   0.0146  72.6771 0001317 110.0673 107.9381  1.00271134 51065
HYLAS 2                 
1 38741U 12043B   26199.53670529 -.00000266  00000+0  00000+0 0  9990
2 38741   2.5065  80.6880 0002405  55.5142 280.7724  1.00272187 51088
INTELSAT 21 (IS-21)     
1 38749U 12045A   26199.80808498 -.00000291  00000+0  00000+0 0  9996
2 38749   0.0462 243.6904 0001700 243.9895  41.8395  1.00271992 50849
ASTRA 2F                
1 38778U 12051A   26199.69918065  .00000143  00000+0  00000+0 0  9999
2 38778   0.0795 254.9099 0003072 287.2944  34.1438  1.00271378 41458
GSAT-10                 
1 38779U 12051B   26199.87470700 -.00000171  00000+0  00000+0 0  9991
2 38779   0.0811 264.2462 0007520 191.0157 239.3053  1.00272775 50416
